{
  "type": "FeatureCollection",
  "features": [
    {
      "type": "Feature",
      "properties": {
        "norad_id": 33860,
        "name": "IRIDIUM 33 DEB",
        "group": "iridium-33-debris",
        "lat": 73.93442290660207,
        "lon": 38.63210609696449,
        "alt_km": 662.0819928417741,
        "timestamp": "2025-12-15T15:53:20.233383+00:00",
        "meta_object_name": "IRIDIUM 33 DEB",
        "meta_object_id": "1997-051AD",
        "meta_epoch": "2025-12-14T14:05:54.709728",
        "meta_mean_motion": 14.67398369,
        "meta_eccentricity": 0.00071551,
        "meta_inclination": 86.3832,
        "meta_ra_of_asc_node": 26.4201,
        "meta_arg_of_pericenter": 351.4031,
        "meta_mean_anomaly": 169.8353,
        "meta_ephemeris_type": 0,
        "meta_classification_type": "U",
        "meta_norad_cat_id": 33860,
        "meta_element_set_no": 999,
        "meta_rev_at_epoch": 88749,
        "meta_bstar": 0.00087762512,
        "meta_mean_motion_dot": 4.984e-05,
        "meta_mean_motion_ddot": 0,
        "tle_line1": "1 33860U 97051AD  25348.58743877  .00004984  00000+0  87763-3 0  9991",
        "tle_line2": "2 33860  86.3832  26.4201 0007155 351.4031 169.8353 14.67398369887499"
      },
      "geometry": {
        "type": "Point",
        "coordinates": [
          38.63210609696449,
          73.93442290660207
        ]
      }
    },
    {
      "type": "Feature",
      "properties": {
        "norad_id": 33862,
        "name": "IRIDIUM 33 DEB",
        "group": "iridium-33-debris",
        "lat": 47.43185524404679,
        "lon": -147.6779498958733,
        "alt_km": 647.354574510051,
        "timestamp": "2025-12-15T15:53:20.233393+00:00",
        "meta_object_name": "IRIDIUM 33 DEB",
        "meta_object_id": "1997-051AF",
        "meta_epoch": "2025-12-14T22:05:56.772672",
        "meta_mean_motion": 14.69518836,
        "meta_eccentricity": 0.00532404,
        "meta_inclination": 86.4094,
        "meta_ra_of_asc_node": 36.5687,
        "meta_arg_of_pericenter": 61.8952,
        "meta_mean_anomaly": 111.0634,
        "meta_ephemeris_type": 0,
        "meta_classification_type": "U",
        "meta_norad_cat_id": 33862,
        "meta_element_set_no": 999,
        "meta_rev_at_epoch": 88855,
        "meta_bstar": 0.00087533333,
        "meta_mean_motion_dot": 5.329e-05,
        "meta_mean_motion_ddot": 0,
        "tle_line1": "1 33862U 97051AF  25348.92079598  .00005329  00000+0  87533-3 0  9992",
        "tle_line2": "2 33862  86.4094  36.5687 0053240  61.8952 111.0634 14.69518836888556"
      },
      "geometry": {
        "type": "Point",
        "coordinates": [
          -147.6779498958733,
          47.43185524404679
        ]
      }
    },
    {
      "type": "Feature",
      "properties": {
        "norad_id": 33866,
        "name": "IRIDIUM 33 DEB",
        "group": "iridium-33-debris",
        "lat": 86.06327500696717,
        "lon": -158.31081480067306,
        "alt_km": 759.0837325330031,
        "timestamp": "2025-12-15T15:53:20.233403+00:00",
        "meta_object_name": "IRIDIUM 33 DEB",
        "meta_object_id": "1997-051AK",
        "meta_epoch": "2025-12-14T18:15:50.446656",
        "meta_mean_motion": 14.25283498,
        "meta_eccentricity": 0.01146408,
        "meta_inclination": 86.2998,
        "meta_ra_of_asc_node": 92.1804,
        "meta_arg_of_pericenter": 154.9797,
        "meta_mean_anomaly": 357.1372,
        "meta_ephemeris_type": 0,
        "meta_classification_type": "U",
        "meta_norad_cat_id": 33866,
        "meta_element_set_no": 999,
        "meta_rev_at_epoch": 86839,
        "meta_bstar": 0.00067922349,
        "meta_mean_motion_dot": 1.731e-05,
        "meta_mean_motion_ddot": 0,
        "tle_line1": "1 33866U 97051AK  25348.76100054  .00001731  00000+0  67922-3 0  9993",
        "tle_line2": "2 33866  86.2998  92.1804 0114640 154.9797 357.1372 14.25283498868390"
      },
      "geometry": {
        "type": "Point",
        "coordinates": [
          -158.31081480067306,
          86.06327500696717
        ]
      }
    },
    {
      "type": "Feature",
      "properties": {
        "norad_id": 33867,
        "name": "IRIDIUM 33 DEB",
        "group": "iridium-33-debris",
        "lat": -34.60802384140386,
        "lon": 171.09544980185333,
        "alt_km": 362.0669613720411,
        "timestamp": "2025-12-15T15:53:20.233412+00:00",
        "meta_object_name": "IRIDIUM 33 DEB",
        "meta_object_id": "1997-051AL",
        "meta_epoch": "2025-12-14T23:42:29.137536",
        "meta_mean_motion": 15.72109252,
        "meta_eccentricity": 0.00134585,
        "meta_inclination": 86.3648,
        "meta_ra_of_asc_node": 348.9333,
        "meta_arg_of_pericenter": 89.1802,
        "meta_mean_anomaly": 271.1011,
        "meta_ephemeris_type": 0,
        "meta_classification_type": "U",
        "meta_norad_cat_id": 33867,
        "meta_element_set_no": 999,
        "meta_rev_at_epoch": 89546,
        "meta_bstar": 0.0054513416,
        "meta_mean_motion_dot": 0.00783723,
        "meta_mean_motion_ddot": 0,
        "tle_line1": "1 33867U 97051AL  25348.98783724  .00783723  00000+0  54513-2 0  9998",
        "tle_line2": "2 33867  86.3648 348.9333 0013458  89.1802 271.1011 15.72109252895465"
      },
      "geometry": {
        "type": "Point",
        "coordinates": [
          171.09544980185333,
          -34.60802384140386
        ]
      }
    },
    {
      "type": "Feature",
      "properties": {
        "norad_id": 33870,
        "name": "IRIDIUM 33 DEB",
        "group": "iridium-33-debris",
        "lat": 46.9998347715405,
        "lon": 60.90640969039411,
        "alt_km": 743.1318313931151,
        "timestamp": "2025-12-15T15:53:20.233422+00:00",
        "meta_object_name": "IRIDIUM 33 DEB",
        "meta_object_id": "1997-051AP",
        "meta_epoch": "2025-12-14T16:59:01.430880",
        "meta_mean_motion": 14.45864658,
        "meta_eccentricity": 0.00216872,
        "meta_inclination": 86.3749,
        "meta_ra_of_asc_node": 57.4172,
        "meta_arg_of_pericenter": 171.7599,
        "meta_mean_anomaly": 311.138,
        "meta_ephemeris_type": 0,
        "meta_classification_type": "U",
        "meta_norad_cat_id": 33870,
        "meta_element_set_no": 999,
        "meta_rev_at_epoch": 88165,
        "meta_bstar": 0.00071367295,
        "meta_mean_motion_dot": 2.561e-05,
        "meta_mean_motion_ddot": 0,
        "tle_line1": "1 33870U 97051AP  25348.70765545  .00002561  00000+0  71367-3 0  9994",
        "tle_line2": "2 33870  86.3749  57.4172 0021687 171.7599 311.1380 14.45864658881655"
      },
      "geometry": {
        "type": "Point",
        "coordinates": [
          60.90640969039411,
          46.9998347715405
        ]
      }
    },
    {
      "type": "Feature",
      "properties": {
        "norad_id": 33881,
        "name": "IRIDIUM 33 DEB",
        "group": "iridium-33-debris",
        "lat": 27.918835301922183,
        "lon": 107.39139049230583,
        "alt_km": 734.7135250609626,
        "timestamp": "2025-12-15T15:53:20.233431+00:00",
        "meta_object_name": "IRIDIUM 33 DEB",
        "meta_object_id": "1997-051BA",
        "meta_epoch": "2025-12-14T20:33:01.304640",
        "meta_mean_motion": 14.56621257,
        "meta_eccentricity": 0.00614848,
        "meta_inclination": 86.3857,
        "meta_ra_of_asc_node": 105.8223,
        "meta_arg_of_pericenter": 167.8344,
        "meta_mean_anomaly": 318.0896,
        "meta_ephemeris_type": 0,
        "meta_classification_type": "U",
        "meta_norad_cat_id": 33881,
        "meta_element_set_no": 999,
        "meta_rev_at_epoch": 87531,
        "meta_bstar": 0.0013201502,
        "meta_mean_motion_dot": 6.061e-05,
        "meta_mean_motion_ddot": 0,
        "tle_line1": "1 33881U 97051BA  25348.85626510  .00006061  00000+0  13202-2 0  9992",
        "tle_line2": "2 33881  86.3857 105.8223 0061484 167.8344 318.0896 14.56621257875317"
      },
      "geometry": {
        "type": "Point",
        "coordinates": [
          107.39139049230583,
          27.918835301922183
        ]
      }
    },
    {
      "type": "Feature",
      "properties": {
        "norad_id": 33884,
        "name": "IRIDIUM 33 DEB",
        "group": "iridium-33-debris",
        "lat": -14.31393144213552,
        "lon": -170.572227288162,
        "alt_km": 645.2147365319925,
        "timestamp": "2025-12-15T15:53:20.233441+00:00",
        "meta_object_name": "IRIDIUM 33 DEB",
        "meta_object_id": "1997-051BD",
        "meta_epoch": "2025-12-14T20:17:18.023136",
        "meta_mean_motion": 14.77479799,
        "meta_eccentricity": 0.00094376,
        "meta_inclination": 86.37,
        "meta_ra_of_asc_node": 8.8682,
        "meta_arg_of_pericenter": 316.0061,
        "meta_mean_anomaly": 217.219,
        "meta_ephemeris_type": 0,
        "meta_classification_type": "U",
        "meta_norad_cat_id": 33884,
        "meta_element_set_no": 999,
        "meta_rev_at_epoch": 88878,
        "meta_bstar": 0.0011989967,
        "meta_mean_motion_dot": 8.576e-05,
        "meta_mean_motion_ddot": 0,
        "tle_line1": "1 33884U 97051BD  25348.84534749  .00008576  00000+0  11990-2 0  9991",
        "tle_line2": "2 33884  86.3700   8.8682 0009437 316.0061 217.2190 14.77479799888789"
      },
      "geometry": {
        "type": "Point",
        "coordinates": [
          -170.572227288162,
          -14.31393144213552
        ]
      }
    }
  ]
}